start=new Date('2022-11-23T00:00:00.000Z').valueOf();
sats=[{"MEAN_ELEMENT_THEORY":"SGP4","ECCENTRICITY":"0.00020710","TIME_SYSTEM":"UTC","MEAN_MOTION_DOT":"0.00000527","EPHEMERIS_TYPE":"0","OBJECT_ID":"2022-022AE","TLE_LINE2":"2 51880  53.2172  10.4025 0002071  43.8233 316.2923 15.08838941 41478","ARG_OF_PERICENTER":"43.8233","SITE":"AFETR","CLASSIFICATION_TYPE":"U","FILE":"3667274","REF_FRAME":"TEME","RA_OF_ASC_NODE":"10.4025","NORAD_CAT_ID":"51880","APOAPSIS":"541.181","OBJECT_TYPE":"PAYLOAD","ELEMENT_SET_NO":"999","GP_ID":"218473970","MEAN_ANOMALY":"316.2923","PERIOD":"95.438","CENTER_NAME":"EARTH","BSTAR":"0.00005121300000","MEAN_MOTION_DDOT":"0.0000000000000","INCLINATION":"53.2172","REV_AT_EPOCH":"4147","DECAY_DATE":null,"SEMIMAJOR_AXIS":"6917.884","PERIAPSIS":"538.316","OBJECT_NAME":"STARLINK-3566","LAUNCH_DATE":"2022-03-03","TLE_LINE1":"1 51880U 22022AE  22326.51165039  .00000527  00000-0  51213-4 0  9995","COUNTRY_CODE":"US","MEAN_MOTION":"15.08838941","RCS_SIZE":"LARGE","EPOCH":"2022-11-22T12:16:46.593696"},{"COUNTRY_CODE":"US","OBJECT_NAME":"STARLINK-3504","LAUNCH_DATE":"2022-03-03","TLE_LINE1":"1 51881U 22022AF  22326.58889456  .00001130  00000-0  89129-4 0  9997","DECAY_DATE":null,"SEMIMAJOR_AXIS":"6917.900","PERIAPSIS":"537.774","MEAN_ANOMALY":"333.4928","PERIOD":"95.438","CENTER_NAME":"EARTH","BSTAR":"0.00008912900000","MEAN_MOTION_DDOT":"0.0000000000000","REV_AT_EPOCH":"4167","INCLINATION":"53.2188","EPOCH":"2022-11-22T14:08:00.489984","RCS_SIZE":"LARGE","MEAN_MOTION":"15.08833551","ARG_OF_PERICENTER":"26.6211","EPHEMERIS_TYPE":"0","OBJECT_ID":"2022-022AF","TLE_LINE2":"2 51881  53.2188   0.0579 0002878  26.6211 333.4928 15.08833551 41675","MEAN_MOTION_DOT":"0.00001130","ECCENTRICITY":"0.00028780","MEAN_ELEMENT_THEORY":"SGP4","TIME_SYSTEM":"UTC","APOAPSIS":"541.756","OBJECT_TYPE":"PAYLOAD","GP_ID":"218504357","ELEMENT_SET_NO":"999","RA_OF_ASC_NODE":"0.0579","NORAD_CAT_ID":"51881","SITE":"AFETR","CLASSIFICATION_TYPE":"U","FILE":"3667517","REF_FRAME":"TEME"},{"GP_ID":"218504607","ELEMENT_SET_NO":"999","OBJECT_TYPE":"PAYLOAD","APOAPSIS":"541.628","NORAD_CAT_ID":"51882","RA_OF_ASC_NODE":"359.1001","REF_FRAME":"TEME","FILE":"3667517","CLASSIFICATION_TYPE":"U","SITE":"AFETR","ARG_OF_PERICENTER":"34.6301","TLE_LINE2":"2 51882  53.2187 359.1001 0002743  34.6301 325.4870 15.08844839 41705","OBJECT_ID":"2022-022AG","EPHEMERIS_TYPE":"0","MEAN_MOTION_DOT":"0.00000136","TIME_SYSTEM":"UTC","MEAN_ELEMENT_THEORY":"SGP4","ECCENTRICITY":"0.00027430","EPOCH":"2022-11-22T19:10:03.633888","RCS_SIZE":"LARGE","MEAN_MOTION":"15.08844839","COUNTRY_CODE":"US","TLE_LINE1":"1 51882U 22022AG  22326.79865317  .00000136  00000-0  26657-4 0  9993","OBJECT_NAME":"STARLINK-3570","LAUNCH_DATE":"2022-03-03","PERIAPSIS":"537.833","SEMIMAJOR_AXIS":"6917.866","DECAY_DATE":null,"BSTAR":"0.00002665700000","MEAN_MOTION_DDOT":"0.0000000000000","REV_AT_EPOCH":"4170","INCLINATION":"53.2187","CENTER_NAME":"EARTH","MEAN_ANOMALY":"325.4870","PERIOD":"95.437"},{"TIME_SYSTEM":"UTC","ECCENTRICITY":"0.00027220","MEAN_ELEMENT_THEORY":"SGP4","MEAN_MOTION_DOT":"0.00000477","OBJECT_ID":"2022-022AH","TLE_LINE2":"2 51883  53.2171   0.0848 0002722  33.9688 326.1478 15.08842481 41610","EPHEMERIS_TYPE":"0","ARG_OF_PERICENTER":"33.9688","REF_FRAME":"TEME","SITE":"AFETR","CLASSIFICATION_TYPE":"U","FILE":"3667517","NORAD_CAT_ID":"51883","RA_OF_ASC_NODE":"0.0848","OBJECT_TYPE":"PAYLOAD","GP_ID":"218505359","ELEMENT_SET_NO":"999","APOAPSIS":"541.621","BSTAR":"0.00004809900000","MEAN_MOTION_DDOT":"0.0000000000000","REV_AT_EPOCH":"4161","INCLINATION":"53.2171","MEAN_ANOMALY":"326.1478","PERIOD":"95.437","CENTER_NAME":"EARTH","SEMIMAJOR_AXIS":"6917.873","PERIAPSIS":"537.855","DECAY_DATE":null,"LAUNCH_DATE":"2022-03-03","OBJECT_NAME":"STARLINK-3576","TLE_LINE1":"1 51883U 22022AH  22326.58248681  .00000477  00000-0  48099-4 0  9992","COUNTRY_CODE":"US","RCS_SIZE":"LARGE","MEAN_MOTION":"15.08842481","EPOCH":"2022-11-22T13:58:46.860384"},{"MEAN_MOTION_DDOT":"0.0000000000000","INCLINATION":"53.2182","BSTAR":"0.00000594450000","REV_AT_EPOCH":"4170","MEAN_ANOMALY":"324.3551","PERIOD":"95.438","CENTER_NAME":"EARTH","SEMIMAJOR_AXIS":"6917.878","PERIAPSIS":"538.139","DECAY_DATE":null,"LAUNCH_DATE":"2022-03-03","OBJECT_NAME":"STARLINK-3577","TLE_LINE1":"1 51884U 22022AJ  22326.59257003 -.00000194  00000-0  59445-5 0  9997","COUNTRY_CODE":"US","MEAN_MOTION":"15.08840627","RCS_SIZE":"LARGE","EPOCH":"2022-11-22T14:13:18.050592","TIME_SYSTEM":"UTC","MEAN_ELEMENT_THEORY":"SGP4","ECCENTRICITY":"0.00023200","MEAN_MOTION_DOT":"-0.00000194","OBJECT_ID":"2022-022AJ","TLE_LINE2":"2 51884  53.2182   0.0323 0002320  35.7596 324.3551 15.08840627 41705","EPHEMERIS_TYPE":"0","ARG_OF_PERICENTER":"35.7596","REF_FRAME":"TEME","CLASSIFICATION_TYPE":"U","SITE":"AFETR","FILE":"3667517","NORAD_CAT_ID":"51884","RA_OF_ASC_NODE":"0.0323","OBJECT_TYPE":"PAYLOAD","ELEMENT_SET_NO":"999","GP_ID":"218505110","APOAPSIS":"541.348"},{"MEAN_MOTION":"15.08840314","RCS_SIZE":"LARGE","EPOCH":"2022-11-22T10:41:19.766688","MEAN_MOTION_DDOT":"0.0000000000000","BSTAR":"0.00013817000000","REV_AT_EPOCH":"4159","INCLINATION":"53.2183","MEAN_ANOMALY":"329.1449","PERIOD":"95.438","CENTER_NAME":"EARTH","SEMIMAJOR_AXIS":"6917.879","PERIAPSIS":"538.031","DECAY_DATE":null,"OBJECT_NAME":"STARLINK-3584","LAUNCH_DATE":"2022-03-03","TLE_LINE1":"1 51885U 22022AK  22326.44536767  .00001911  00000-0  13817-3 0  9997","COUNTRY_CODE":"US","REF_FRAME":"TEME","SITE":"AFETR","CLASSIFICATION_TYPE":"U","FILE":"3667274","NORAD_CAT_ID":"51885","RA_OF_ASC_NODE":"0.7062","OBJECT_TYPE":"PAYLOAD","GP_ID":"218472234","ELEMENT_SET_NO":"999","APOAPSIS":"541.458","TIME_SYSTEM":"UTC","MEAN_ELEMENT_THEORY":"SGP4","ECCENTRICITY":"0.00024770","MEAN_MOTION_DOT":"0.00001911","OBJECT_ID":"2022-022AK","TLE_LINE2":"2 51885  53.2183   0.7062 0002477  30.9689 329.1449 15.08840314 41596","EPHEMERIS_TYPE":"0","ARG_OF_PERICENTER":"30.9689"},{"TLE_LINE2":"2 51886  53.2181   0.0774 0002211  42.3236 317.7927 15.08844092 41624","OBJECT_ID":"2022-022AL","EPHEMERIS_TYPE":"0","ARG_OF_PERICENTER":"42.3236","TIME_SYSTEM":"UTC","MEAN_ELEMENT_THEORY":"SGP4","ECCENTRICITY":"0.00022110","MEAN_MOTION_DOT":"0.00000545","NORAD_CAT_ID":"51886","RA_OF_ASC_NODE":"0.0774","ELEMENT_SET_NO":"999","GP_ID":"218504108","OBJECT_TYPE":"PAYLOAD","APOAPSIS":"541.262","REF_FRAME":"TEME","FILE":"3667517","CLASSIFICATION_TYPE":"U","SITE":"AFETR","TLE_LINE1":"1 51886U 22022AL  22326.58520763  .00000545  00000-0  52323-4 0  9990","LAUNCH_DATE":"2022-03-03","OBJECT_NAME":"STARLINK-3565","COUNTRY_CODE":"US","BSTAR":"0.00005232300000","MEAN_MOTION_DDOT":"0.0000000000000","REV_AT_EPOCH":"4162","INCLINATION":"53.2181","CENTER_NAME":"EARTH","MEAN_ANOMALY":"317.7927","PERIOD":"95.437","PERIAPSIS":"538.203","SEMIMAJOR_AXIS":"6917.868","DECAY_DATE":null,"RCS_SIZE":"LARGE","MEAN_MOTION":"15.08844092","EPOCH":"2022-11-22T14:02:41.939232"},{"REF_FRAME":"TEME","CLASSIFICATION_TYPE":"U","SITE":"AFETR","FILE":"3667443","OBJECT_TYPE":"PAYLOAD","GP_ID":"218479208","ELEMENT_SET_NO":"999","APOAPSIS":"541.437","NORAD_CAT_ID":"51887","RA_OF_ASC_NODE":"0.4219","MEAN_MOTION_DOT":"0.00000658","TIME_SYSTEM":"UTC","MEAN_ELEMENT_THEORY":"SGP4","ECCENTRICITY":"0.00024360","ARG_OF_PERICENTER":"31.0000","OBJECT_ID":"2022-022AM","TLE_LINE2":"2 51887  53.2179   0.4219 0002436  31.0000 329.1135 15.08837770 41604","EPHEMERIS_TYPE":"0","EPOCH":"2022-11-22T12:11:25.130400","RCS_SIZE":"LARGE","MEAN_MOTION":"15.08837770","SEMIMAJOR_AXIS":"6917.887","PERIAPSIS":"538.067","DECAY_DATE":null,"MEAN_MOTION_DDOT":"0.0000000000000","REV_AT_EPOCH":"4160","BSTAR":"0.00005943900000","INCLINATION":"53.2179","MEAN_ANOMALY":"329.1135","PERIOD":"95.438","CENTER_NAME":"EARTH","COUNTRY_CODE":"US","OBJECT_NAME":"STARLINK-3551","LAUNCH_DATE":"2022-03-03","TLE_LINE1":"1 51887U 22022AM  22326.50792975  .00000658  00000-0  59439-4 0  9999"},{"REV_AT_EPOCH":"4159","MEAN_MOTION_DDOT":"0.0000000000000","BSTAR":"0.00010733000000","INCLINATION":"53.2177","MEAN_ANOMALY":"320.1838","PERIOD":"95.437","CENTER_NAME":"EARTH","SEMIMAJOR_AXIS":"6917.848","PERIAPSIS":"538.196","DECAY_DATE":null,"LAUNCH_DATE":"2022-03-03","OBJECT_NAME":"STARLINK-3536","TLE_LINE1":"1 51888U 22022AN  22326.38280725  .00001421  00000-0  10733-3 0  9993","COUNTRY_CODE":"US","MEAN_MOTION":"15.08850462","RCS_SIZE":"LARGE","EPOCH":"2022-11-22T09:11:14.546400","TIME_SYSTEM":"UTC","MEAN_ELEMENT_THEORY":"SGP4","ECCENTRICITY":"0.00021940","MEAN_MOTION_DOT":"0.00001421","OBJECT_ID":"2022-022AN","TLE_LINE2":"2 51888  53.2177   0.9805 0002194  39.9315 320.1838 15.08850462 41598","EPHEMERIS_TYPE":"0","ARG_OF_PERICENTER":"39.9315","REF_FRAME":"TEME","CLASSIFICATION_TYPE":"U","SITE":"AFETR","FILE":"3667274","NORAD_CAT_ID":"51888","RA_OF_ASC_NODE":"0.9805","OBJECT_TYPE":"PAYLOAD","GP_ID":"218473971","ELEMENT_SET_NO":"999","APOAPSIS":"541.231"},{"EPOCH":"2022-11-22T08:44:45.106944","RCS_SIZE":"LARGE","MEAN_MOTION":"15.08846994","SEMIMAJOR_AXIS":"6917.859","PERIAPSIS":"537.939","DECAY_DATE":null,"MEAN_MOTION_DDOT":"0.0000000000000","BSTAR":"0.00013555000000","REV_AT_EPOCH":"4158","INCLINATION":"53.2191","MEAN_ANOMALY":"331.2820","PERIOD":"95.437","CENTER_NAME":"EARTH","COUNTRY_CODE":"US","LAUNCH_DATE":"2022-03-03","OBJECT_NAME":"STARLINK-3547","TLE_LINE1":"1 51889U 22022AP  22326.36441096  .00001870  00000-0  13555-3 0  9995","REF_FRAME":"TEME","SITE":"AFETR","CLASSIFICATION_TYPE":"U","FILE":"3667274","OBJECT_TYPE":"PAYLOAD","GP_ID":"218472733","ELEMENT_SET_NO":"999","APOAPSIS":"541.510","NORAD_CAT_ID":"51889","RA_OF_ASC_NODE":"1.0679","MEAN_MOTION_DOT":"0.00001870","TIME_SYSTEM":"UTC","MEAN_ELEMENT_THEORY":"SGP4","ECCENTRICITY":"0.00025810","ARG_OF_PERICENTER":"28.8315","OBJECT_ID":"2022-022AP","TLE_LINE2":"2 51889  53.2191   1.0679 0002581  28.8315 331.2820 15.08846994 41581","EPHEMERIS_TYPE":"0"}];
